BEIDOU-3 IGSO-1         
1 44204U 19023A   25246.83230697 -.00000180  00000+0  00000+0 0  9994
2 44204  58.2934  40.6079 0025028 215.2119 146.1104  1.00274419  4347
BEIDOU-2 G8             
1 44231U 19027A   25247.19432992 -.00000247  00000+0  00000+0 0  9994
2 44231   1.4036  74.2978 0006395 269.0951 214.6472  1.00274706 23213
YAMAL 601               
1 44307U 19031A   25247.22336422  .00000119  00000+0  00000+0 0  9995
2 44307   0.0149 202.8052 0002641 311.0498 319.1516  1.00272627 23055
AT&T T-16               
1 44333U 19034A   25246.86021376 -.00000115  00000+0  00000+0 0  9992
2 44333   0.0225  99.7939 0000442 345.6208 106.6137  1.00268884 22760
EUTELSAT 7C             
1 44334U 19034B   25246.59605819  .00000048  00000+0  00000+0 0  9997
2 44334   0.0720 185.7207 0003302 320.3214  58.5037  1.00271154  3969
BEIDOU-3 IGSO-2         
1 44337U 19035A   25246.30339951 -.00000166  00000+0  00000+0 0  9993
2 44337  55.2152 161.3864 0035049 208.8574 197.4055  1.00246680 22795
COSMOS 2539             
1 44457U 19048A   25246.95391551  .00000080  00000+0  00000+0 0  9999
2 44457   0.0128 123.2310 0000586 343.4725 232.0191  1.00269927 22352
EDRS-C                  
1 44475U 19049A   25247.19398325 -.00000263  00000+0  00000+0 0  9997
2 44475   0.0430 110.2867 0001424  46.6598  38.9861  1.00271036 22343
INTELSAT 39 (IS-39)     
1 44476U 19049B   25247.20114006  .00000000  00000+0  00000+0 0  9990
2 44476   0.0245 144.1162 0000635 207.6667 126.1425  1.00269515 22267
AMOS-17                 
1 44479U 19050A   25247.24003177  .00000000  00000+0  00000+0 0  9995
2 44479   0.0144 153.2311 0002362  12.2941 281.4942  1.00270068 22319
AEHF-5 (USA 292)        
1 44481U 19051A   25246.73500428 -.00000255  00000+0  00000+0 0  9996
2 44481   1.8426 318.6672 0064393   9.0933  12.9328  1.00267270 22392
EUTELSAT 5 WEST B       
1 44624U 19067A   25247.25114141 -.00000043  00000+0  00000+0 0  9998
2 44624   0.1007 307.5254 0003204 216.5115 264.9872  1.00272699 21575
TJS-4                   
1 44637U 19070A   25247.12753301 -.00000171  00000+0  00000+0 0  9991
2 44637   0.0196 224.5232 0002693 303.3545 305.0890  1.00271573 21605
BEIDOU-3 IGSO-3         
1 44709U 19073A   25245.50809987 -.00000134  00000+0  00000+0 0  9995
2 44709  55.2933 284.0070 0045733 191.2632 168.7403  1.00274913 21571
TIBA-1                  
1 44800U 19080A   25246.36294959  .00000156  00000+0  00000+0 0  9990
2 44800   0.0558 339.0779 0002566 193.3148 336.5519  1.00276020 21184
INMARSAT GX5            
1 44801U 19080B   25247.24003177  .00000074  00000+0  00000+0 0  9998
2 44801   0.0471  23.8202 0001985 143.3600 273.8478  1.00272214  3919
JCSAT-18 (KACIFIC 1)    
1 44868U 19091A   25246.70444767 -.00000201  00000+0  00000+0 0  9990
2 44868   0.0530 302.9039 0000138 192.4696 251.3215  1.00271121 21136
ELEKTRO-L 3             
1 44903U 19095A   25247.18072319 -.00000098  00000+0  00000+0 0  9991
2 44903   0.0753  78.7578 0001548 135.6994 270.1907  1.00271396 20843
SHIJIAN-20 (SJ-20)      
1 44910U 19097A   25246.72583999 -.00000130  00000+0  00000+0 0  9998
2 44910   4.1775  78.5974 0001422 169.5647  79.3830  1.00108098 20820
TJS-5                   
1 44978U 20002A   25238.15391877 -.00000347  00000+0  00000+0 0  9990
2 44978   0.0626 102.5329 0003334  49.0586 345.8949  1.00266688 20747
GSAT-30                 
1 45026U 20005A   25247.02544972 -.00000166  00000+0  00000+0 0  9999
2 45026   0.0396 254.9961 0002528 227.4272 313.1489  1.00271585 20635
EUTELSAT KONNECT        
1 45027U 20005B   25246.31057041  .00000049  00000+0  00000+0 0  9996
2 45027   0.0643 100.3109 0001481  67.5473 293.8335  1.00269235 21456
JCSAT-17                
1 45245U 20013A   25247.19268324 -.00000310  00000+0  00000+0 0  9994
2 45245   5.4203 353.9961 0004429 164.1764  30.7507  1.00272767 20365
GEO-KOMPSAT-2B          
1 45246U 20013B   25246.75446744 -.00000344  00000+0  00000+0 0  9997
2 45246   0.0521 296.0593 0001294 280.4726 166.4683  1.00270298 20409
BEIDOU-3 G2             
1 45344U 20017A   25247.11795873 -.00000141  00000+0  00000+0 0  9996
2 45344   2.8112  41.8381 0001094 327.2580  96.9143  1.00272402 20396
AEHF-6 (USA 298)        
1 45465U 20022B   25247.19294324 -.00000298  00000+0  00000+0 0  9992
2 45465   3.1912 298.5899 0042234   8.4790 243.6989  1.00274652 20140
BEIDOU-3 G3             
1 45807U 20040A   25246.98757140 -.00000354  00000+0  00000+0 0  9991
2 45807   1.7437  65.4341 0004067 336.9024  47.0518  1.00267378 19206
APSTAR-6D               
1 45863U 20045A   25246.90675397 -.00000318  00000+0  00000+0 0  9993
2 45863   0.0364 102.3468 0002364 358.9498 342.4543  1.00272053 18987
KOREASAT 116            
1 45920U 20048A   25247.04595591  .00000000  00000+0  00000+0 0  9990
2 45920   0.0202 137.2264 0001039  20.9419 318.0176  1.00268930 18777
EXPRESS 103             
1 45985U 20053A   25247.11346955 -.00000282  00000+0  00000+0 0  9996
2 45985   0.0200 234.7737 0000388 215.9817  30.0810  1.00273157 18782
EXPRESS 80              
1 45986U 20053B   25246.82452338 -.00000136  00000+0  00000+0 0  9995
2 45986   0.0330 247.5061 0001173 159.5020 313.0070  1.00271343 18766
BSAT-4B                 
1 46112U 20056A   25246.68436919 -.00000351  00000+0  00000+0 0  9990
2 46112   0.0430 231.5680 0004325 280.0448 187.6667  1.00272696 18517
MEV-2                   
1 46113U 20056B   25246.38038975 -.00000011  00000+0  00000+0 0  9991
2 46113   0.0440 274.5612 0000818 250.1876 313.9790  1.00272854 19177
GALAXY 30 (G-30)        
1 46114U 20056C   25247.21226999  .00000000  00000+0  00000+0 0  9997
2 46114   0.0221 151.0177 0002633  20.0607 123.9201  1.00270196 18423
GAOFEN-13 01            
1 46610U 20071A   25246.97488895 -.00000363  00000+0  00000+0 0  9995
2 46610   0.1418  83.3930 0032286 118.6363 250.3692  1.00275168 18059
TIANTONG-1 2            
1 46916U 20082A   25247.04751593 -.00000356  00000+0  00000+0 0  9995
2 46916   1.3174 302.3602 0001379 295.3747 247.7184  1.00270964 17782
LUCAS (JDRS-1)          
1 47202U 20089A   25247.11234288 -.00000237  00000+0  00000+0 0  9994
2 47202   0.0545  78.9041 0002407  81.0687 314.7428  1.00272374 17556
SXM-7                   
1 47240U 20096A   25246.50637159 -.00000205  00000+0  00000+0 0  9995
2 47240   0.0123 132.6394 0004463 357.1439 310.2112  1.00270551  4568
CMS-01                  
1 47256U 20099A   25247.02544972 -.00000165  00000+0  00000+0 0  9998
2 47256   0.0101 150.4643 0005753 107.1610 177.9171  1.00268551 17321
TURKSAT 5A              
1 47306U 21001A   25246.36850453  .00000154  00000+0  00000+0 0  9995
2 47306   0.0254  97.1627 0000178 330.3970  78.7800  1.00272323 17093
TIANTONG-1 3            
1 47321U 21003A   25247.11781984 -.00000154  00000+0  00000+0 0  9991
2 47321   2.0887 324.3275 0003718 248.7671 254.3437  1.00270669 17090
TJS-6                   
1 47613U 21010A   25247.20108994  .00000041  00000+0  00000+0 0  9991
2 47613   0.1509 260.1565 0000507 163.0343 171.3396  1.00267640 16941
SBIRS GEO-5 (USA 315)   
1 48618U 21042A   25247.11303622 -.00000268  00000+0  00000+0 0  9999
2 48618   5.4865 327.1803 0006251 195.9508 315.2950  1.00272757 15903
FENGYUN 4B              
1 48808U 21047A   25247.04370258 -.00000330  00000+0  00000+0 0  9996
2 48808   0.1913  82.7245 0004224 255.2582 125.8128  1.00266880 15715
SXM-8                   
1 48838U 21049A   25247.22015669 -.00000206  00000+0  00000+0 0  9995
2 48838   0.0141  61.7978 0004420 339.9277 295.9474  1.00271284 15727
TIANLIAN 1-05           
1 49011U 21063A   25247.24035013  .00000107  00000+0  00000+0 0  9991
2 49011   0.8503  82.4184 0003619 123.0352 241.4536  1.00273494 15219
STAR ONE D2             
1 49055U 21069A   25246.79478014 -.00000265  00000+0  00000+0 0  9992
2 49055   0.0188 122.5374 0002694  49.2008  27.5481  1.00270221 15064
EUTELSAT QUANTUM        
1 49056U 21069B   25247.22336422  .00000125  00000+0  00000+0 0  9992
2 49056   0.0497 295.2654 0002084 253.7452 282.6958  1.00273089 15063
ZHONGXING-2E            
1 49062U 21071A   25247.18933569 -.00000293  00000+0  00000+0 0  9999
2 49062   0.0211 255.0484 0001602 292.4221 322.3129  1.00272898 15179
TJS-7                   
1 49115U 21077A   25247.14596969 -.00000125  00000+0  00000+0 0  9993
2 49115   0.2397 267.8085 0002185 202.1261 186.6840  1.00270978  6686
CHINASAT 9B             
1 49125U 21080A   25247.04300924 -.00000314  00000+0  00000+0 0  9991
2 49125   0.0090 127.1255 0003110  48.8294 284.3715  1.00272233 14785
SHIJIAN-21 (SJ-21)      
1 49330U 21094A   25247.30018919 -.00000349  00000+0  00000+0 0  9991
2 49330   4.4609  62.8216 0055692 164.0275 352.2457  1.00274922  2413
SES-17                  
1 49332U 21095A   25246.58106479 -.00000272  00000+0  00000+0 0  9997
2 49332   0.0162  86.8154 0001185  64.8532 333.3772  1.00270125 14985
SYRACUSE 4A             
1 49333U 21095B   25247.22336422  .00000000  00000+0  00000+0 0  9991
2 49333   0.0227 149.5466 0001502  14.3699 305.5850  1.00269204 15095
QZS-1R (MICHIBIKI-1R)   
1 49336U 21096A   25246.89552433 -.00000229  00000+0  00000+0 0  9993
2 49336  36.8628  83.8428 0743838 269.5689  86.9000  1.00290958 14148
ZHONGXING-1D            
1 49505U 21114A   25246.97740229 -.00000337  00000+0  00000+0 0  9993
2 49505   0.0211 102.5016 0001928 148.5810 214.3064  1.00271419 13965
STPSAT-6                
1 49817U 21118A   25247.07212936 -.00000046  00000+0  00000+0 0  9991
2 49817   0.0145 219.5628 0001106  59.3686 338.7007  1.00272850 13703
LDPE-1                  
1 49818U 21118B   25247.24558649  .00000080  00000+0  00000+0 0  9992
2 49818   2.9879  82.3334 0005678  22.2787 331.1540  1.00638517 13769
EXPRESS AMU-7           
1 50001U 21123A   25247.19441659 -.00000243  00000+0  00000+0 0  9992
2 50001   0.0321 258.9362 0000581 188.8109 110.8022  1.00272865 13670
